ONEWEB-0545             
1 54647U 22166F   25186.27369661 -.00000170  00000+0 -44357-3 0  9990
2 54647  87.9275 313.1858 0001768 122.0619 238.0687 13.21824913125677
ONEWEB-0580             
1 54648U 22166G   25186.39825656 -.00000187  00000+0 -48456-3 0  9997
2 54648  87.9278 313.1588 0001611 107.6789 252.4521 13.21825144125736
ONEWEB-0582             
1 54649U 22166H   25186.36513962  .00000082  00000+0  16636-3 0  9996
2 54649  87.9256 313.1662 0001501 112.4791 247.6502 13.21827764125703
ONEWEB-0583             
1 54650U 22166J   25186.37618188 -.00000226  00000+0 -57844-3 0  9993
2 54650  87.9271 313.1825 0001901 103.5627 256.5718 13.21825492125711
ONEWEB-0584             
1 54651U 22166K   25186.39669216  .00000104  00000+0  22002-3 0  9995
2 54651  87.9272 313.1627 0001540 105.1897 254.9408 13.21824027125709
ONEWEB-0585             
1 54652U 22166L   25186.27052296  .00000156  00000+0  34655-3 0  9991
2 54652  87.9270 313.1748 0001952  95.2830 264.8527 13.21824357125691
ONEWEB-0586             
1 54653U 22166M   25186.35883500 -.00000213  00000+0 -54671-3 0  9997
2 54653  87.9270 313.1789 0001817 104.9617 255.1718 13.21825153125700
ONEWEB-0587             
1 54654U 22166N   25186.36831936  .00000126  00000+0  27448-3 0  9998
2 54654  87.9270 313.1261 0002045  93.7385 266.3983 13.21826594125862
